COSMOS 2456 (730)       
1 36111U 09070A   26094.31638122 -.00000007  00000+0  00000+0 0  9991
2 36111  64.9694  73.4901 0006513 311.2364 153.5936  2.13103577126854
COSMOS 2457 (733)       
1 36112U 09070B   26094.01031916 -.00000008  00000+0  00000+0 0  9998
2 36112  64.9547  73.3459 0001490 193.6954 164.4243  2.13100936126842
COSMOS 2460 (732)       
1 36402U 10007C   26094.24975299 -.00000046  00000+0  00000+0 0  9990
2 36402  65.4623 316.9695 0002181  49.5361 133.5187  2.13106066125159
GPS BIIF-1  (PRN 25)    
1 36585U 10022A   26094.67072971  .00000005  00000+0  00000+0 0  9995
2 36585  54.2821 211.5226 0126965  66.0315 297.1445  2.00558864116121
BEIDOU-2 IGSO-1 (C06)   
1 36828U 10036A   26086.63883915 -.00000150  00000+0  00000+0 0  9997
2 36828  54.2909 163.6978 0057461 222.7538 133.1758  1.00295665 57273
BEIDOU-2 G4 (C04)       
1 37210U 10057A   26094.84968088 -.00000110  00000+0  00000+0 0  9999
2 37210   3.4656  69.3601 0007264 215.4308  14.2588  1.00271597 56557
BEIDOU-2 IGSO-2 (C07)   
1 37256U 10068A   26086.44836399 -.00000175  00000+0  00000+0 0  9998
2 37256  47.6922 272.8379 0048070 212.2935 326.6285  1.00251076 55976
BEIDOU-2 IGSO-3 (C08)   
1 37384U 11013A   26094.76841628 -.00000188  00000+0  00000+0 0  9990
2 37384  62.3137  40.8446 0034285 189.4563 347.0219  1.00286193 54929
GSAT-8 (GAGAN/PRN 127)  
1 37605U 11022A   26094.90017720  .00000086  00000+0  00000+0 0  9996
2 37605   1.9418  82.7034 0005657 224.7448 264.8776  1.00271969 52488
BEIDOU-2 IGSO-4 (C09)   
1 37763U 11038A   26087.66258249 -.00000109  00000+0  00000+0 0  9993
2 37763  54.5871 166.4040 0156581 231.4212 120.2889  1.00260433 53838
GSAT0101 (GALILEO-PFM)  
1 37846U 11060A   26093.93877219 -.00000095  00000+0  00000+0 0  9995
2 37846  57.0172 343.7769 0004100  17.7484 342.3127  1.70475877 89855
GSAT0102 (GALILEO-FM2)  
1 37847U 11060B   26094.16007975 -.00000095  00000+0  00000+0 0  9996
2 37847  57.0179 343.7712 0004811   9.1881 172.2383  1.70475892 89868
COSMOS 2476 (744)       
1 37867U 11064A   26093.59558017 -.00000004  00000+0  00000+0 0  9996
2 37867  65.2287  75.3878 0024793 242.3223 297.8742  2.13103623112176
COSMOS 2477 (745)       
1 37868U 11064B   26092.43702075 -.00000001  00000+0  00000+0 0  9991
2 37868  65.2346  75.5056 0021883 243.9509 308.0017  2.13102755112146
COSMOS 2475 (743)       
1 37869U 11064C   26092.47987737 -.00000001  00000+0  00000+0 0  9996
2 37869  65.2414  75.5251 0027830 255.4078 284.8639  2.13101572112155
BEIDOU-2 IGSO-5 (C10)   
1 37948U 11073A   26093.97039089 -.00000174  00000+0  00000+0 0  9999
2 37948  47.8149 272.4589 0109539 220.8427 142.8662  1.00265759 52398
LUCH 5A (SDCM/PRN 140)  
1 37951U 11074B   26094.70847182 -.00000046  00000+0  00000+0 0  9995
2 37951   8.5680  74.8738 0003167 285.2994 254.8211  1.00271287 52319
